0 GONETS M 04
1 38736U 12041D   13282.62162459  .00000010  00000-0  00000+0 0  3934
2 38736 082.4735 083.7729 0022161 077.3164 283.0395 12.42871612 54467
0 GONETS M 04
1 38736U 12041D   13283.82909464  .00000010  00000-0  00000+0 0  3943
2 38736 082.4734 083.0193 0022172 074.6757 285.6772 12.42871615 54611
0 GONETS M 04
1 38736U 12041D   13286.48552807  .00000010  00000-0  00000+0 0  3965
2 38736 082.4738 081.3618 0022189 069.0191 291.3256 12.42871642 54943
0 GONETS M 04
1 38736U 12041D   13287.69299789  .00000010  00000-0  00000+0 0  3977
2 38736 082.4740 080.6087 0022166 066.4399 293.9010 12.42871642 55097
0 GONETS M 04
1 38736U 12041D   13288.90046687  .00000010  00000-0  00000+0 0  3980
2 38736 082.4745 079.8556 0022191 063.8981 296.4369 12.42871677 55249
0 GONETS M 04
1 38736U 12041D   13289.94694031  .00000010  00000-0  00000+0 0  3998
2 38736 082.4746 079.2027 0022168 061.5867 298.7454 12.42871767 55373
0 GONETS M 04
1 38736U 12041D   13291.07391118  .00000010  00000-0  00000+0 0  4008
2 38736 082.4748 078.5001 0022141 059.1807 301.1459 12.42871834 55512
0 GONETS M 04
1 38736U 12041D   13292.44237514  .00000010  00000-0  00000+0 0  4010
2 38736 082.4745 077.6459 0022136 056.2900 304.0272 12.42871918 55688
0 GONETS M 04
1 38736U 12041D   13293.64984356  .00000010  00000-0  00000+0 0  4027
2 38736 082.4753 076.8937 0022024 053.8813 306.4315 12.42872065 55836
0 GONETS M 04
1 38736U 12041D   13295.01830709  .00000010  00000-0  00000+0 0  4033
2 38736 082.4754 076.0405 0021957 051.0744 309.2285 12.42872164 56003
0 GONETS M 04
1 38736U 12041D   13296.06477974  .00000010  00000-0  00000+0 0  4041
2 38736 082.4758 075.3880 0021895 049.0569 311.2408 12.42872192 56134
